GSAT-7                  
1 39234U 13044B   17345.57076961 -.00000084  00000-0  00000-0 0  9997
2 39234   0.0567 116.7915 0005198 158.9033  84.2510  1.00271408 14180
